EARTHCARE               
1 59908U 24101A   24253.16888321  .00035072  00000+0  48133-3 0  9990
2 59908  96.9885  19.0324 0004595 145.1553 215.0005 15.57250890 16040
